Name,Address1,Address2,Address3,Postcode,URL
Airedale NHS Foundation Trust,"Airedale General Hospital, Skipton Road, Steeton",Keighley,West Yorkshire,BD20 6TD,http://www.airedale-trust.nhs.uk/
Alder Hey Children's NHS Foundation Trust,"Alder Hey Children's Hospital, Eaton Road, West Derby",Liverpool,Merseyside,L12 2AP,http://www.alderhey.nhs.uk
Ashford and St Peter's Hospitals NHS Foundation Trust,"St Peters Hospital, Guildford Road",Chertsey,Surrey,KT16 0PZ,http://www.ashfordstpeters.nhs.uk/
"Barking, Havering and Redbridge University Hospitals NHS Trust","Queen's Hospital, Rom Valley Way",Romford,Essex,RM7 0AG,http://www.bhrhospitals.nhs.uk/
Barnsley Hospital NHS Foundation Trust,Gawber Road,Barnsley,South Yorkshire,S75 2EP,http://www.barnsleyhospital.nhs.uk
Bedford Hospital NHS Trust,"South Wing, Kempston Road",Bedford,Bedfordshire,MK42 9DJ,http://www.bedfordhospital.nhs.uk
Birmingham Women's and Children's NHS Foundation Trust,Steelhouse Lane,Birmingham,West Midlands,B4 6NH,http://www.bwc.nhs.uk
Blackpool Teaching Hospitals NHS Foundation Trust,"Victoria Hospital, Whinney Heys Road",Blackpool,Lancashire,FY3 8NR,https://www.bfwh.nhs.uk/
Bolton NHS Foundation Trust,"The Royal Bolton Hospital, Minerva Road, Farnworth",Bolton,Lancashire,BL4 0JR,http://www.boltonft.nhs.uk
Bradford Teaching Hospitals NHS Foundation Trust,"Bradford Royal Infirmary, Duckworth Lane",Bradford,West Yorkshire,BD9 6RJ,http://www.bradfordhospitals.nhs.uk
Brighton and Sussex University Hospitals NHS Trust,"Royal Sussex County Hospital, Eastern Road",Brighton,East Sussex,BN2 5BE,http://www.bsuh.nhs.uk/
Buckinghamshire Healthcare NHS Trust,"Executive Office, Hartwell Wing, Stoke Mandeville Hospital, Mandeville Road",Aylesbury,Buckinghamshire,HP21 8AL,http://www.buckshealthcare.nhs.uk
Burton Hospitals NHS Foundation Trust,"Queen's Hospital, Belvedere Road",Burton-on-Trent,Staffordshire,DE13 0RB,http://www.burtonhospitals.nhs.uk/
Calderdale and Huddersfield NHS Foundation Trust,"Royal Infirmary, Calderdale Royal Infirmary",Huddersfield,West Yorkshire,HX3 0PW,http://www.cht.nhs.uk
Cambridge University Hospitals NHS Foundation Trust,Hills Road,Cambridge,Cambridgeshire,CB2 0QQ,https://www.cuh.nhs.uk/
Chesterfield Royal Hospital NHS Foundation Trust,"Top Road, Calow",Chesterfield,Derbyshire,S44 5BL,http://www.chesterfieldroyal.nhs.uk
Countess Of Chester Hospital NHS Foundation Trust,The Countess Of Chester Health Park,Chester,Cheshire,CH2 1UL,http://www.coch.nhs.uk
Dartford and Gravesham NHS Trust,"Darent Valley Hospital, Darenth Wood Road",Dartford,Kent,DA2 8DA,http://www.dgt.nhs.uk
Dorset County Hospital NHS Foundation Trust,"Dorset County Hospital, Williams Avenue",Dorchester,Dorset,DT1 2JY,https://www.dchft.nhs.uk
East and North Hertfordshire NHS Trust,"Lister Hospital, Coreys Mill Lane",Stevenage,Hertfordshire,SG1 4AB,https://www.enherts-tr.nhs.uk/
East Cheshire NHS Trust,"Macclesfield District General Hospital, Victoria Road",Macclesfield,Cheshire,SK10 3BL,http://www.eastcheshire.nhs.uk
East Kent Hospitals University NHS Foundation Trust,"Kent and Canterbury Hospital, Ethelbert Road",Canterbury,Kent,CT1 3NG,http://www.ekhuft.nhs.uk/
East Lancashire Hospitals NHS Trust,"Royal Blackburn Hospital, Haslingden Road",Blackburn,Lancashire,BB2 3HH,http://www.elht.nhs.uk/
East Suffolk and North Essex NHS Foundation Trust,"Colchester General Hospital, Turner Road",Colchester,Essex,CO4 5JL,https://www.esneft.nhs.uk/
East Sussex Healthcare NHS Trust,"St. Annes House, 729 The Ridge",St. Leonards-on-Sea,East Sussex,TN37 7PT,http://www.esht.nhs.uk
Epsom and St Helier University Hospitals NHS Trust,"St Helier Hospital, Wrythe Lane",Carshalton,Surrey,SM5 1AA,http://www.epsom-sthelier.nhs.uk
Essex Partnership University NHS Foundation Trust,"The Lodge, Lodge Approach, Runwell",Wickford,Essex,SS11 7XX,https://eput.nhs.uk/
Frimley Health NHS Foundation Trust,"Portsmouth Road, Frimley",Camberley,Surrey,GU16 7UJ,http://www.fhft.nhs.uk/
Gateshead Health NHS Foundation Trust,"Queen Elizabeth Hospital, Sheriff Hill",Gateshead,Tyne and Wear,NE9 6SX,http://www.qegateshead.nhs.uk
George Eliot Hospital NHS Trust,"Lewes House, College Street",Nuneaton,Warwickshire,CV10 7DJ,http://www.geh.nhs.uk/
Gloucestershire Hospitals NHS Foundation Trust,"Trust Headquarters, Alexandra House, Sandford Road",Cheltenham,Gloucestershire,GL53 7AN,http://www.gloshospitals.nhs.uk/
Great Ormond Street Hospital for Children NHS Foundation Trust,Great Ormond Street,London,Greater London,WC1N 3JH,http://www.gosh.nhs.uk/
Great Western Hospitals NHS Foundation Trust,"Great Western Hospital, Marlborough Road",Swindon,Wiltshire,SN3 6BB,http://www.gwh.nhs.uk
Hampshire Hospitals NHS Foundation Trust,Aldermaston Road,Basingstoke,Hampshire,RG24 9NA,https://www.hampshirehospitals.nhs.uk
Harrogate and District NHS Foundation Trust,"Harrogate District Hospital, Lancaster Park Road",Harrogate,North Yorkshire,HG2 7SX,http://www.hdft.nhs.uk/
Homerton University Hospital NHS Foundation Trust,Homerton Row,London,Greater London,E9 6SR,http://www.homerton.nhs.uk
James Paget University Hospitals NHS Foundation Trust,"Lowestoft Road, Gorleston",Great Yarmouth,Norfolk,NR31 6LA,http://www.jpaget.nhs.uk/
Kettering General Hospital NHS Foundation Trust,"Kettering General Hospital, Rothwell Road",Kettering,Northamptonshire,NN16 8UZ,http://www.kgh.nhs.uk
Kingston Hospital NHS Foundation Trust,Galsworthy Road,Kingston Upon Thames,Surrey,KT2 7QB,http://www.kingstonhospital.nhs.uk/
Lancashire Teaching Hospitals NHS Foundation Trust,"Chief Executive's Office, Royal Preston Hospital, Sharoe Green Lane, Fulwood",Preston,Lancashire,PR2 9HT,https://www.lancsteachinghospitals.nhs.uk/
Leeds Teaching Hospitals NHS Trust,"St. James's University Hospital, Beckett Street",Leeds,West Yorkshire,LS9 7TF,http://www.leedsth.nhs.uk
Liverpool Heart and Chest NHS Foundation Trust,Thomas Drive,Liverpool,Merseyside,L14 3PE,http://www.lhch.nhs.uk
Liverpool University Hospitals NHS Foundation Trust,Prescot Street,Liverpool,Merseyside,L7 8XP,https://www.liverpoolft.nhs.uk/
London North West University Healthcare NHS Trust,"Northwick Park Hospital, Watford Road",Harrow,Middlesex,HA1 3UJ,http://www.lnwh.nhs.uk
Luton and Dunstable University Hospital NHS Foundation Trust,Lewsey Road,Luton,Bedfordshire,LU4 0DZ,https://www.ldh.nhs.uk/
Maidstone and Tunbridge Wells NHS Trust,"Maidstone Hospital, Hermitage Lane",Maidstone,Kent,ME16 9QQ,http://www.mtw.nhs.uk/
Manchester University NHS Foundation Trust,"Cobbett House, Oxford Road",Manchester,Greater Manchester,M13 9WL,https://mft.nhs.uk/
Medway NHS Foundation Trust,"Medway Maritime Hospital, Windmill Road",Gillingham,Kent,ME7 5NY,http://www.medway.nhs.uk
Mid and South Essex NHS Foundation Trust,Prittlewell Chase,Westcliff On Sea,Essex,SS0 0RY,http://www.southend.nhs.uk
Mid Cheshire Hospitals NHS Foundation Trust,"Leighton Hospital, Middlewich Road",Crewe,Cheshire,CW1 4QJ,http://www.mcht.nhs.uk
Mid Staffordshire NHS Foundation Trust,"Stafford Hospital, Weston Road",Stafford,Staffordshire,ST16 3SA,http://www.midstaffs.nhs.uk/
Mid Yorkshire Hospitals NHS Trust,"Trust HQ and Education Centre, Aberford Road",Wakefield,West Yorkshire,WF1 4DG,http://www.midyorks.nhs.uk
Milton Keynes University Hospital NHS Foundation Trust,"Standing Way, Eaglestone",Milton Keynes,Buckinghamshire,MK6 5LD,http://www.mkhospital.nhs.uk
Norfolk and Norwich University Hospitals NHS Foundation Trust,"Norfolk and Norwich University Hospital, Colney Lane",Norwich,Norfolk,NR4 7UY,http://www.nnuh.nhs.uk
North Bristol NHS Trust,"Southmead Hospital, Southmead Road",Bristol,Avon,BS10 5NB,http://www.nbt.nhs.uk/
North Cumbria University Hospitals NHS Trust,"North Cumbria University Hospitals NHS Trust, Cumberland Infirmary, Newtown Road",Carlisle,Cumbria,CA2 7HY,http://www.ncuh.nhs.uk/index.aspx
North Tees and Hartlepool NHS Foundation Trust,"University Hospital of North Tees, Hardwick Road",Stockton on Tees,Cleveland,TS19 8PE,http://www.nth.nhs.uk/
North West Anglia NHS Foundation Trust,"Peterborough City Hospital, Bretton Gate, Bretton",Peterborough,Cambridgeshire,PE3 9GZ,https://www.nwangliaft.nhs.uk/
Northampton General Hospital NHS Trust,Cliftonville,Northampton,Northamptonshire,NN1 5BD,http://www.northamptongeneral.nhs.uk
Northern Devon Healthcare NHS Trust,"North Devon District Hospital, Raleigh Park",Barnstaple,Devon,EX31 4JB,http://www.northdevonhealth.nhs.uk/
Northumbria Healthcare NHS Foundation Trust,Rake Lane,North Shields,Tyne and Wear,NE29 8NH,http://www.northumbria.nhs.uk
Nottingham University Hospitals NHS Trust,"Trust Headquarters, City Hospital campus, Hucknall Road",Nottingham,Nottinghamshire,NG5 1PB,http://www.nuh.nhs.uk
Oxford University Hospitals NHS Foundation Trust,"John Radcliffe Hospital, Headley Way, Headington",Oxford,Oxfordshire,OX3 9DU,http://www.ouh.nhs.uk
Pennine Acute Hospitals NHS Trust,"Trust Headquarters, North Manchester General Hospital, Delaunays Road, Crumpsall",Manchester,Greater Manchester,M8 5RB,http://www.pat.nhs.uk
Poole Hospital NHS Foundation Trust,Longfleet Road,Poole,Dorset,BH15 2JB,http://www.poole.nhs.uk/
Portsmouth Hospitals NHS Trust,"Trust Headquarters, Queen Alexandra Hospital, Southwick Hill Road",Portsmouth,Hampshire,PO6 3LY,http://www.porthosp.nhs.uk/
Queen Victoria Hospital NHS Foundation Trust,Holtye Road,East Grinstead,West Sussex,RH19 3DZ,http://www.qvh.nhs.uk
Robert Jones and Agnes Hunt Orthopaedic and District Hospital NHS Trust,"The Robert Jones and Agnes Hunt Orthopaedic Hospital NHS Foundation Trust, Twympath Lane",Oswestry,Shropshire,SY10 7AG,http://www.rjah.nhs.uk/
Royal Berkshire NHS Foundation Trust,"Royal Berkshire Hospital, London Road",Reading,Berkshire,RG1 5AN,http://www.royalberkshire.nhs.uk
Royal Brompton and Harefield NHS Foundation Trust,"Royal Brompton Hospital, Sydney Street",London,Greater London,SW3 6NP,http://www.rbht.nhs.uk/
Royal Cornwall Hospitals NHS Trust,"Royal Cornwall Hospital, Treliske",Truro,Cornwall,TR1 3LJ,http://www.royalcornwall.nhs.uk
Royal Devon and Exeter NHS Foundation Trust,"Royal Devon and Exeter Hospital, Barrack Road",Exeter,Devon,EX2 5DW,http://www.rdehospital.nhs.uk
Royal National Orthopaedic Hospital NHS Trust,Brockley Hill,Stanmore,Middlesex,HA7 4LP,http://www.rnoh.nhs.uk
Royal Papworth Hospital NHS Foundation Trust,"Papworth Road, Cambridge Biomedical Campus",Cambridge,Cambridgeshire,CB2 0AY,https://www.royalpapworth.nhs.uk
Royal Surrey NHS Foundation Trust,"Royal Surrey County Hospital, Egerton Road",Guildford,Surrey,GU2 7XX,http://www.royalsurrey.nhs.uk
Salisbury NHS Foundation Trust,"Salisbury District Hospital, Odstock Road",Salisbury,Wiltshire,SP2 8BJ,http://www.salisbury.nhs.uk
Sandwell and West Birmingham Hospitals NHS Trust,"Sandwell General Hospital, Lyndon",West Bromwich,West Midlands,B71 4HJ,http://www.swbh.nhs.uk/
Sheffield Children's NHS Foundation Trust,Western Bank,Sheffield,South Yorkshire,S10 2TH,http://www.sheffieldchildrens.nhs.uk
Sheffield Teaching Hospitals NHS Foundation Trust,"Northern General Hospital, Herries Road",Sheffield,South Yorkshire,S5 7AT,http://www.sth.nhs.uk
Sherwood Forest Hospitals NHS Foundation Trust,Mansfield Road,Sutton-In-Ashfield,Nottinghamshire,NG17 4JL,http://www.sfh-tr.nhs.uk/
Shrewsbury and Telford Hospital NHS Trust,"Royal Shrewsbury Hospital, Mytton Oak Road",Shrewsbury,Shropshire,SY3 8XQ,http://www.sath.nhs.uk/
South Tees Hospitals NHS Foundation Trust,"The James Cook University Hospital, Marton Road",Middlesbrough,Cleveland,TS4 3BW,http://www.southtees.nhs.uk/
South Tyneside NHS Foundation Trust,"South Tyneside District Hospital, Harton Lane",South Shields,Tyne and Wear,NE34 0PL,http://www.stft.nhs.uk/
South Warwickshire NHS Foundation Trust,"Warwick Hospital, Lakin Road",Warwick,Warwickshire,CV34 5BW,http://www.swft.nhs.uk
St Helens and Knowsley Hospitals NHS Trust,"Whiston Hospital, Warrington Road",Prescot,Merseyside,L35 5DR,http://www.sthk.nhs.uk
Stockport NHS Foundation Trust,"Stepping Hill Hospital, Poplar Grove",Stockport,Cheshire,SK2 7JE,http://www.stockport.nhs.uk
Surrey and Sussex Healthcare NHS Trust,"East Surrey Hospital, Canada Avenue",Redhill,Surrey,RH1 5RH,http://www.surreyandsussex.nhs.uk
Tameside Hospital NHS Foundation Trust,"Tameside & Glossop Integrated Care NHS Foundation Trust, Fountain Street",Ashton-under-Lyne,Lancashire,OL6 9RW,http://www.tamesidehospital.nhs.uk
Taunton and Somerset NHS Foundation Trust,Musgrove Park Hospital,Taunton,Somerset,TA1 5DA,http://www.musgroveparkhospital.nhs.uk/
The Christie NHS Foundation Trust,"550 Wilmslow Road, Withington",Manchester,Greater Manchester,M20 4BX,https://www.christie.nhs.uk/
The Dudley Group NHS Foundation Trust,"South Block, Russells Hall Hospital, Pensnett Road",Dudley,West Midlands,DY1 2HQ,http://www.dudleygroup.nhs.uk
The Hillingdon Hospitals NHS Foundation Trust,Pield Heath Road,Uxbridge,Middlesex,UB8 3NN,https://www.thh.nhs.uk
The Newcastle Upon Tyne Hospitals NHS Foundation Trust,"Freeman Hospital, Freeman Road, High Heaton",Newcastle-upon-Tyne,Tyne and Wear,NE7 7DN,http://www.newcastle-hospitals.nhs.uk/
The Princess Alexandra Hospital NHS Trust,"Hamstel Road, Hamstel Road",Harlow,Essex,CM20 1QX,http://www.pah.nhs.uk/
"The Queen Elizabeth Hospital, King's Lynn. NHS Foundation Trust","Queen Elizabeth Hospital, Gayton Road",Kings Lynn,Norfolk,PE30 4ET,http://www.qehkl.nhs.uk
The Royal Bournemouth and Christchurch Hospitals NHS Foundation Trust,"Royal Bournemouth Hospital, Castle Lane East",Bournemouth,Dorset,BH7 7DW,http://www.rbch.nhs.uk
The Royal Marsden NHS Foundation Trust,Fulham Road,London,Greater London,SW3 6JJ,http://www.royalmarsden.nhs.uk
The Royal Orthopaedic Hospital NHS Foundation Trust,"Bristol Road South, Northfield",Birmingham,West Midlands,B31 2AP,http://www.roh.nhs.uk/
The Walton Centre NHS Foundation Trust,Lower Lane,Liverpool,Merseyside,L9 7LJ,http://www.thewaltoncentre.nhs.uk/
Torbay and South Devon NHS Foundation Trust,"Hengrave House, Torbay Hospital, Newton Road",Torquay,Devon,TQ2 7AA,http://www.torbayandsouthdevon.nhs.uk
United Lincolnshire Hospitals NHS Trust,"Trust Headquarters, Lincoln County Hospital, Greetwell Road",Lincoln,Lincolnshire,LN2 4AX,http://www.ulh.nhs.uk
University Hospital of Derby and Burton NHS Foundation Trust,"Royal Derby Hospital, Uttoxeter Road",Derby,Derbyshire,DE22 3NE,https://www.uhdb.nhs.uk/
University Hospital Southampton NHS Foundation Trust,"Southampton General Hospital, Tremona Road",Southampton,Hampshire,SO16 6YD,http://www.uhs.nhs.uk
University Hospitals Birmingham NHS Foundation Trust,"Trust Headquarters, Queen Elizabeth Hospital Birmingham, Mindelsohn Way, Edgbaston",Birmingham,West Midlands,B15 2GW,http://www.uhb.nhs.uk
University Hospitals Bristol and Weston NHS Foundation Trust,Marlborough Street,Bristol,Avon,BS1 3NU,https://www.uhbw.nhs.uk/
University Hospitals Of Leicester NHS Trust,"University Hospitals of Leicester Headquarters, Level 3, Balmoral Building, Leicester Royal Infirmary, Infirmary Square",Leicester,Leicestershire,LE1 5WW,http://www.leicestershospitals.nhs.uk
University Hospitals Of Morecambe Bay NHS Foundation Trust,"Westmorland General Hospital, Burton Road",Kendal,Cumbria,LA9 7RG,http://www.uhmb.nhs.uk
University Hospitals of North Midlands,"Royal Stoke University Hospital, Newcastle Road",Stoke-on-Trent,Staffordshire,ST4 6QG,http://www.uhnm.nhs.uk/
University Hospitals Plymouth NHS Trust,"Derriford Hospital, Derriford Road",Plymouth,Devon,PL6 8DH,https://www.plymouthhospitals.nhs.uk/
Warrington and Halton Hospitals NHS Foundation Trust,"Warrington Hospital, Lovely Lane",Warrington,Cheshire,WA5 1QG,http://www.whh.nhs.uk
West Hertfordshire Hospitals NHS Trust,"Trust Offices, Watford General Hospital, Vicarage Road",Watford,Hertfordshire,WD18 0HB,https://www.westhertshospitals.nhs.uk/
West Suffolk NHS Foundation Trust,"West Suffolk Hospital, Hardwick Lane",Bury St Edmunds,Suffolk,IP33 2QZ,http://www.wsh.nhs.uk
Western Sussex Hospitals NHS Foundation Trust,"Worthing Hospital, Lyndhurst Road",Worthing,West Sussex,BN11 2DH,http://www.westernsussexhospitals.nhs.uk
Wirral University Teaching Hospital NHS Foundation Trust,"Arrowe Park Hospital, Arrowe Park Road, Upton",Wirral,Merseyside,CH49 5PE,http://www.wuth.nhs.uk
Worcestershire Acute Hospitals NHS Trust,"Worcestershire Royal Hospital, Charles Hastings Way",Worcester,Worcestershire,WR5 1DD,http://www.worcsacute.nhs.uk
"Wrightington, Wigan and Leigh NHS Foundation Trust","The Elms, Royal Albert Edward Infirmary, Wigan Lane",Wigan,Lancashire,WN1 2NN,http://www.wwl.nhs.uk
Wye Valley NHS Trust,"The County Hospital, Union Walk",Hereford,Herefordshire,HR1 2ER,http://www.wyevalley.nhs.uk
Yeovil District Hospital NHS Foundation Trust,"Yeovil District Hospital, Higher Kingston",Yeovil,Somerset,BA21 4AT,http://www.yeovilhospital.nhs.uk
York Teaching Hospital NHS Foundation Trust,"The York Hospital, Wigginton Road",York,North Yorkshire,YO31 8HE,http://www.york.nhs.uk
Birmingham Community Healthcare NHS Foundation Trust,"Trust Headquarters, 3, Priestley Wharf, Holt Street",Birmingham,West Midlands,B7 4BN,http://www.bhamcommunity.nhs.uk
Bridgewater Community Healthcare NHS Foundation Trust,"Headquarters, Europa Point, Europa Boulevard",Warrington,Cheshire,WA5 7TY,http://www.bridgewater.nhs.uk
Cambridgeshire Community Services NHS Trust,"Unit 7/8, Meadow Park",St. Ives,Cambridgeshire,PE27 4LG,http://www.cambscommunityservices.nhs.uk/
Derbyshire Community Health Services NHS Foundation Trust,"Trust Headquarters, Brookdale Unit, Ash Green Learning Disability Centre, Ashgate Road","Ashgate, Chesterfield",Derbyshire,S42 7JE,http://www.dchs.nhs.uk
East Midlands Ambulance Service NHS Trust,"1 Horizon Place, Mellors Way, Nottingham Business Park",Nottingham,Nottinghamshire,NG8 6PY,http://www.emas.nhs.uk/
East Of England Ambulance Service NHS Trust,"Trust HQ, Whiting Way",Melbourn,Cambridgeshire,SG8 6NA,http://www.eastamb.nhs.uk/
Gloucestershire Care Services NHS Trust,"Edward Jenner Court, 1010 Pioneer Avenue, Gloucester Business Pk, Brockworth",Gloucester,Gloucestershire,GL3 4AW,http://www.glos-care.nhs.uk
Hertfordshire Community NHS Trust,"Unit 1a, Howard Court, 14 Tewin Road",Welwyn Garden City,Hertfordshire,AL7 1BW,http://www.hct.nhs.uk/
Hounslow and Richmond Community Healthcare NHS Trust,"Thames House (headquarters), 180 - 194 High Street",Teddington,Middlesex,TW11 8HU,http://www.hrch.nhs.uk
Kent Community Health NHS Foundation Trust,"PALS (Patient and Liaison Service), Concept Court, Unit J, Shearway Road",Folkestone,Kent,CT19 4RG,https://www.kentcht.nhs.uk
Leeds Community Healthcare NHS Trust,"Stockdale House, 8 Victoria Road",Leeds,West Yorkshire,LS6 1PF,http://www.leedscommunityhealthcare.nhs.uk
Lincolnshire Community Health Services NHS Trust,"Beech House, Witham Park, Waterside South",Lincoln,Lincolnshire,LN5 7JH,http://www.lincolnshirecommunityhealthservices.nhs.uk
London Ambulance Service NHS Trust,220 Waterloo Road,London,Greater London,SE1 8SD,http://www.londonambulance.nhs.uk/
Norfolk Community Health and Care NHS Trust,"Woodlands House, Norwich Community Hospital, Bowthorpe Road",Norwich,Norfolk,NR2 3TU,http://www.nchc.nhs.uk
Shropshire Community Health NHS Trust,"William Farr House, Mytton Oak Road",Shrewsbury,Shropshire,SY3 8XL,http://www.shropscommunityhealth.nhs.uk
South Central Ambulance Service NHS Foundation Trust,"Northern House, 7 - 8 Talisman Business Centre, Talisman Road",Bicester,Oxfordshire,OX26 6HR,http://www.southcentralambulance.nhs.uk/
South East Coast Ambulance Service NHS Foundation Trust,"Nexus House, 4 Gatwick Road",Crawley,Sussex,RH10 9BG,http://www.secamb.nhs.uk/
South Western Ambulance Service NHS Foundation Trust,"Westcountry House, Abbey Court, Eagle Way, Sowton Industrial Estate",Exeter,Devon,EX2 7HY,http://www.swast.nhs.uk/
West Midlands Ambulance Service University NHS Foundation Trust,"Waterfront Business Park, Waterfront Way",Brierley Hill,West Midlands,DY5 1LX,http://www.wmas.nhs.uk/
Wirral Community NHS Foundation Trust,"St Catherine's Health Centre, Derby Road",Birkenhead,Merseyside,CH42 0LQ,https://www.wchc.nhs.uk/
Yorkshire Ambulance Service NHS Trust,"Springhill 2, Wakefield 41 Industrial Estate, Brindley Way",Wakefield,West Yorkshire,WF2 0XQ,http://www.yas.nhs.uk/
